{
  "norad_id": 56960,
  "name": "ORBITER SN3",
  "history": [
    {
      "epoch": "2026-03-28T21:28:09.587424Z",
      "apogee_km": 470.7981711485836,
      "perigee_km": 461.00941336505093,
      "latitude_deg": -1.7577552225105228e-05,
      "longitude_deg": 77.81150476609709,
      "height_km": 470.3830936370382,
      "semi_major_axis_km": 6844.040792256817,
      "eccentricity": 0.00071513,
      "inclination_deg": 97.6129,
      "raan_deg": 226.1599,
      "arg_perigee_deg": 253.7486,
      "mean_anomaly_deg": 106.2969,
      "mean_motion_rev_day": 15.33323804
    },
    {
      "epoch": "2026-03-29T03:44:03.301728Z",
      "apogee_km": 470.78172538734634,
      "perigee_km": 460.98656232625945,
      "latitude_deg": -3.1937827690909174e-05,
      "longitude_deg": -16.150794035434863,
      "height_km": 470.4560934701244,
      "semi_major_axis_km": 6844.021143856803,
      "eccentricity": 0.0007156,
      "inclination_deg": 97.6129,
      "raan_deg": 226.4287,
      "arg_perigee_deg": 252.6274,
      "mean_anomaly_deg": 107.4185,
      "mean_motion_rev_day": 15.33330407
    },
    {
      "epoch": "2026-03-30T04:47:37.249152Z",
      "apogee_km": 470.7203962156527,
      "perigee_km": 460.8938612356278,
      "latitude_deg": 5.081946305140726e-05,
      "longitude_deg": -31.9959061899731,
      "height_km": 470.73094092299624,
      "semi_major_axis_km": 6843.94412872564,
      "eccentricity": 0.0007179,
      "inclination_deg": 97.6133,
      "raan_deg": 227.5042,
      "arg_perigee_deg": 248.331,
      "mean_anomaly_deg": 111.7168,
      "mean_motion_rev_day": 15.33356289
    },
    {
      "epoch": "2026-03-30T06:21:35.568000Z",
      "apogee_km": 470.71812455081727,
      "perigee_km": 460.8840698989152,
      "latitude_deg": -2.4417080477664406e-05,
      "longitude_deg": -55.48601284901535,
      "height_km": 470.7462502355616,
      "semi_major_axis_km": 6843.938097224866,
      "eccentricity": 0.00071845,
      "inclination_deg": 97.6133,
      "raan_deg": 227.5714,
      "arg_perigee_deg": 248.0807,
      "mean_anomaly_deg": 111.9671,
      "mean_motion_rev_day": 15.33358316
    },
    {
      "epoch": "2026-03-30T15:45:25.359264Z",
      "apogee_km": 470.69376337812446,
      "perigee_km": 460.8494852129379,
      "latitude_deg": 3.4515700879292555e-05,
      "longitude_deg": 163.57388834780568,
      "height_km": 470.83570105383,
      "semi_major_axis_km": 6843.908624295531,
      "eccentricity": 0.0007192,
      "inclination_deg": 97.6134,
      "raan_deg": 227.9747,
      "arg_perigee_deg": 246.6046,
      "mean_anomaly_deg": 113.444,
      "mean_motion_rev_day": 15.33368221
    },
    {
      "epoch": "2026-03-30T22:01:18.418656Z",
      "apogee_km": 470.6834668082629,
      "perigee_km": 460.81417282294024,
      "latitude_deg": 1.316852863058433e-05,
      "longitude_deg": 69.61432700999889,
      "height_km": 470.9002640668593,
      "semi_major_axis_km": 6843.885819815601,
      "eccentricity": 0.00072103,
      "inclination_deg": 97.6136,
      "raan_deg": 228.2435,
      "arg_perigee_deg": 245.558,
      "mean_anomaly_deg": 114.491,
      "mean_motion_rev_day": 15.33375885
    },
    {
      "epoch": "2026-03-31T21:30:51.709248Z",
      "apogee_km": 470.6323568007574,
      "perigee_km": 460.740294565815,
      "latitude_deg": 8.351411287402274e-05,
      "longitude_deg": 77.26900220480248,
      "height_km": 471.1540236902423,
      "semi_major_axis_km": 6843.8233256832855,
      "eccentricity": 0.0007227,
      "inclination_deg": 97.614,
      "raan_deg": 229.2517,
      "arg_perigee_deg": 241.5254,
      "mean_anomaly_deg": 118.5261,
      "mean_motion_rev_day": 15.33396888
    },
    {
      "epoch": "2026-04-01T21:00:23.853312Z",
      "apogee_km": 470.61023540654696,
      "perigee_km": 460.6539201521937,
      "latitude_deg": 2.2346115968149565e-05,
      "longitude_deg": 84.92848503302145,
      "height_km": 471.4123504136911,
      "semi_major_axis_km": 6843.7690777793705,
      "eccentricity": 0.0007274,
      "inclination_deg": 97.6144,
      "raan_deg": 230.2599,
      "arg_perigee_deg": 237.5549,
      "mean_anomaly_deg": 122.499,
      "mean_motion_rev_day": 15.3341512
    },
    {
      "epoch": "2026-04-02T20:29:54.670272Z",
      "apogee_km": 470.54594862273734,
      "perigee_km": 460.54732682802023,
      "latitude_deg": 5.477175941913374e-05,
      "longitude_deg": 92.59349968368568,
      "height_km": 471.6222799464272,
      "semi_major_axis_km": 6843.6836377253785,
      "eccentricity": 0.0007305,
      "inclination_deg": 97.6148,
      "raan_deg": 231.2681,
      "arg_perigee_deg": 233.6071,
      "mean_anomaly_deg": 126.4498,
      "mean_motion_rev_day": 15.33443836
    },
    {
      "epoch": "2026-04-02T22:03:52.622784Z",
      "apogee_km": 470.5313715071243,
      "perigee_km": 460.5253852307178,
      "latitude_deg": -3.988508254823471e-05,
      "longitude_deg": 69.10492615788382,
      "height_km": 471.62587897596273,
      "semi_major_axis_km": 6843.665378368921,
      "eccentricity": 0.00073104,
      "inclination_deg": 97.6148,
      "raan_deg": 231.3353,
      "arg_perigee_deg": 233.3268,
      "mean_anomaly_deg": 126.7302,
      "mean_motion_rev_day": 15.33449973
    },
    {
      "epoch": "2026-04-03T19:59:23.773056Z",
      "apogee_km": 470.47606727302264,
      "perigee_km": 460.4283096265399,
      "latitude_deg": 3.4349463099861924e-05,
      "longitude_deg": 100.26578260482842,
      "height_km": 471.8099742427793,
      "semi_major_axis_km": 6843.5891884497805,
      "eccentricity": 0.0007341,
      "inclination_deg": 97.6152,
      "raan_deg": 232.2764,
      "arg_perigee_deg": 229.7144,
      "mean_anomaly_deg": 130.3457,
      "mean_motion_rev_day": 15.33475581
    },
    {
      "epoch": "2026-04-04T19:28:51.275712Z",
      "apogee_km": 470.4414894065094,
      "perigee_km": 460.3035144303676,
      "latitude_deg": -6.938933028312387e-06,
      "longitude_deg": 107.9448529315537,
      "height_km": 472.0164385109863,
      "semi_major_axis_km": 6843.509501918438,
      "eccentricity": 0.0007407,
      "inclination_deg": 97.6155,
      "raan_deg": 233.2848,
      "arg_perigee_deg": 225.7877,
      "mean_anomaly_deg": 134.2757,
      "mean_motion_rev_day": 15.33502365
    },
    {
      "epoch": "2026-04-05T15:50:22.062912Z",
      "apogee_km": 470.40826697086413,
      "perigee_km": 460.21686500820124,
      "latitude_deg": -2.111849194545679e-05,
      "longitude_deg": 162.60447743470004,
      "height_km": 472.1794666451912,
      "semi_major_axis_km": 6843.449565989533,
      "eccentricity": 0.00074461,
      "inclination_deg": 97.6157,
      "raan_deg": 234.1588,
      "arg_perigee_deg": 222.4856,
      "mean_anomaly_deg": 137.581,
      "mean_motion_rev_day": 15.33522511
    },
    {
      "epoch": "2026-04-05T20:32:15.187776Z",
      "apogee_km": 470.3974060002938,
      "perigee_km": 460.19658328787864,
      "latitude_deg": 3.904209677811739e-05,
      "longitude_deg": 92.14187177446888,
      "height_km": 472.21008459075404,
      "semi_major_axis_km": 6843.433994644086,
      "eccentricity": 0.0007453,
      "inclination_deg": 97.6157,
      "raan_deg": 234.3605,
      "arg_perigee_deg": 221.7696,
      "mean_anomaly_deg": 138.2978,
      "mean_motion_rev_day": 15.33527745
    },
    {
      "epoch": "2026-04-06T07:29:58.960608Z",
      "apogee_km": 470.38239129962585,
      "perigee_km": 460.15095533572094,
      "latitude_deg": -1.422853058414615e-05,
      "longitude_deg": -72.27010885390845,
      "height_km": 472.30052720603567,
      "semi_major_axis_km": 6843.403673317673,
      "eccentricity": 0.00074754,
      "inclination_deg": 97.6158,
      "raan_deg": 234.8311,
      "arg_perigee_deg": 219.8948,
      "mean_anomaly_deg": 140.1745,
      "mean_motion_rev_day": 15.33537937
    },
    {
      "epoch": "2026-04-07T13:15:13.696704Z",
      "apogee_km": 470.3669367704779,
      "perigee_km": 460.0285740887548,
      "latitude_deg": -1.9618916520832604e-05,
      "longitude_deg": -158.52586905617815,
      "height_km": 472.52825130557625,
      "semi_major_axis_km": 6843.334755429616,
      "eccentricity": 0.00075536,
      "inclination_deg": 97.616,
      "raan_deg": 236.1087,
      "arg_perigee_deg": 215.2413,
      "mean_anomaly_deg": 144.833,
      "mean_motion_rev_day": 15.33561103
    },
    {
      "epoch": "2026-04-07T19:31:03.973152Z",
      "apogee_km": 470.36171439883583,
      "perigee_km": 460.0022980871845,
      "latitude_deg": -1.2730189745901168e-06,
      "longitude_deg": 107.52629060960503,
      "height_km": 472.5740621538681,
      "semi_major_axis_km": 6843.319006243009,
      "eccentricity": 0.0007569,
      "inclination_deg": 97.6161,
      "raan_deg": 236.3776,
      "arg_perigee_deg": 214.2114,
      "mean_anomaly_deg": 145.8641,
      "mean_motion_rev_day": 15.33566397
    },
    {
      "epoch": "2026-04-08T15:52:31.828800Z",
      "apogee_km": 470.3647405773945,
      "perigee_km": 459.91136420386556,
      "latitude_deg": 1.2941627395700927e-05,
      "longitude_deg": 162.19835835086104,
      "height_km": 472.74042389517945,
      "semi_major_axis_km": 6843.27505239063,
      "eccentricity": 0.00076377,
      "inclination_deg": 97.6161,
      "raan_deg": 237.2518,
      "arg_perigee_deg": 210.7031,
      "mean_anomaly_deg": 149.3765,
      "mean_motion_rev_day": 15.33581172
    },
    {
      "epoch": "2026-04-09T20:03:46.110240Z",
      "apogee_km": 470.3533917003251,
      "perigee_km": 459.79021459178875,
      "latitude_deg": -9.85032301087482e-06,
      "longitude_deg": 99.44154061121793,
      "height_km": 472.9031561879143,
      "semi_major_axis_km": 6843.208803146056,
      "eccentricity": 0.0007718,
      "inclination_deg": 97.616,
      "raan_deg": 238.4621,
      "arg_perigee_deg": 206.5803,
      "mean_anomaly_deg": 153.5044,
      "mean_motion_rev_day": 15.33603442
    }
  ]
}